{"type": "FeatureCollection", "features": [{"type": "Feature", "properties": {"norad_id": 2807, "name": "OPS 7218 (TRANSIT 16)", "group": "nnss", "lat": 49.16655546291693, "lon": 173.1531679751036, "alt_km": 1055.8690423219869, "timestamp": "2025-12-27T08:36:18.650724+00:00", "meta": {"OBJECT_NAME": "OPS 7218 (TRANSIT 16)", "OBJECT_ID": "1967-048A", "EPOCH": "2025-12-27T01:10:54.482016", "MEAN_MOTION": 13.50725218, "ECCENTRICITY": 0.0022125, "INCLINATION": 89.6735, "RA_OF_ASC_NODE": 353.5414, "ARG_OF_PERICENTER": 76.0171, "MEAN_ANOMALY": 351.3895, "EPHEMERIS_TYPE": 0, "CLASSIFICATION_TYPE": "U", "NORAD_CAT_ID": 2807, "ELEMENT_SET_NO": 999, "REV_AT_EPOCH": 88469, "BSTAR": 0.00016376, "MEAN_MOTION_DOT": 1.16e-06, "MEAN_MOTION_DDOT": 0}, "tle": {"line1": "1 02807U 67048A   25361.04924169  .00000116  00000+0  16376-3 0  9997", "line2": "2 02807  89.6735 353.5414 0022125  76.0171 351.3895 13.50725218884699"}}, "geometry": {"type": "Point", "coordinates": [173.1531679751036, 49.16655546291693]}}, {"type": "Feature", "properties": {"norad_id": 2965, "name": "OPS 4947 (TRANSIT 17)", "group": "nnss", "lat": -21.186121837917607, "lon": 23.028435643985034, "alt_km": 1094.5078174690198, "timestamp": "2025-12-27T08:36:18.650747+00:00", "meta": {"OBJECT_NAME": "OPS 4947 (TRANSIT 17)", "OBJECT_ID": "1967-092A", "EPOCH": "2025-12-27T01:44:28.419360", "MEAN_MOTION": 13.53457396, "ECCENTRICITY": 0.0047282, "INCLINATION": 89.2485, "RA_OF_ASC_NODE": 23.3417, "ARG_OF_PERICENTER": 192.1031, "MEAN_ANOMALY": 193.8499, "EPHEMERIS_TYPE": 0, "CLASSIFICATION_TYPE": "U", "NORAD_CAT_ID": 2965, "ELEMENT_SET_NO": 999, "REV_AT_EPOCH": 87291, "BSTAR": 0.00019936, "MEAN_MOTION_DOT": 1.46e-06, "MEAN_MOTION_DDOT": 0}, "tle": {"line1": "1 02965U 67092A   25361.07255115  .00000146  00000+0  19936-3 0  9990", "line2": "2 02965  89.2485  23.3417 0047282 192.1031 193.8499 13.53457396872916"}}, "geometry": {"type": "Point", "coordinates": [23.028435643985034, -21.186121837917607]}}, {"type": "Feature", "properties": {"norad_id": 3133, "name": "OPS 7034 (TRANSIT 18)", "group": "nnss", "lat": 27.607113214643633, "lon": -86.33420046444819, "alt_km": 1074.1522062725053, "timestamp": "2025-12-27T08:36:18.650760+00:00", "meta": {"OBJECT_NAME": "OPS 7034 (TRANSIT 18)", "OBJECT_ID": "1968-012A", "EPOCH": "2025-12-27T01:24:54.088704", "MEAN_MOTION": 13.51569169, "ECCENTRICITY": 0.007512, "INCLINATION": 90.0284, "RA_OF_ASC_NODE": 273.6798, "ARG_OF_PERICENTER": 128.0553, "MEAN_ANOMALY": 243.6683, "EPHEMERIS_TYPE": 0, "CLASSIFICATION_TYPE": "U", "NORAD_CAT_ID": 3133, "ELEMENT_SET_NO": 999, "REV_AT_EPOCH": 57112, "BSTAR": 0.00021224, "MEAN_MOTION_DOT": 1.51e-06, "MEAN_MOTION_DDOT": 0}, "tle": {"line1": "1 03133U 68012A   25361.05895936  .00000151  00000+0  21224-3 0  9999", "line2": "2 03133  90.0284 273.6798 0075120 128.0553 243.6683 13.51569169571120"}}, "geometry": {"type": "Point", "coordinates": [-86.33420046444819, 27.607113214643633]}}, {"type": "Feature", "properties": {"norad_id": 4507, "name": "NNSS 19 (TRANSIT 19)", "group": "nnss", "lat": -11.36121646500042, "lon": -125.45549529425271, "alt_km": 1087.616023470432, "timestamp": "2025-12-27T08:36:18.650772+00:00", "meta": {"OBJECT_NAME": "NNSS 19 (TRANSIT 19)", "OBJECT_ID": "1970-067A", "EPOCH": "2025-12-27T03:19:49.282176", "MEAN_MOTION": 13.51318074, "ECCENTRICITY": 0.0170239, "INCLINATION": 90.0045, "RA_OF_ASC_NODE": 234.5435, "ARG_OF_PERICENTER": 251.2246, "MEAN_ANOMALY": 107.037, "EPHEMERIS_TYPE": 0, "CLASSIFICATION_TYPE": "U", "NORAD_CAT_ID": 4507, "ELEMENT_SET_NO": 999, "REV_AT_EPOCH": 72416, "BSTAR": 0.00013052, "MEAN_MOTION_DOT": 1.01e-06, "MEAN_MOTION_DDOT": 0}, "tle": {"line1": "1 04507U 70067A   25361.13876484  .00000101  00000+0  13052-3 0  9999", "line2": "2 04507  90.0045 234.5435 0170239 251.2246 107.0370 13.51318074724167"}}, "geometry": {"type": "Point", "coordinates": [-125.45549529425271, -11.36121646500042]}}, {"type": "Feature", "properties": {"norad_id": 6909, "name": "NNSS 20 (TRANSIT 20)", "group": "nnss", "lat": 36.918065206962, "lon": -105.05640580089783, "alt_km": 876.8540802991702, "timestamp": "2025-12-27T08:36:18.650783+00:00", "meta": {"OBJECT_NAME": "NNSS 20 (TRANSIT 20)", "OBJECT_ID": "1973-081A", "EPOCH": "2025-12-27T03:10:40.516032", "MEAN_MOTION": 13.71442057, "ECCENTRICITY": 0.0155993, "INCLINATION": 89.8558, "RA_OF_ASC_NODE": 254.8386, "ARG_OF_PERICENTER": 35.6424, "MEAN_ANOMALY": 325.5035, "EPHEMERIS_TYPE": 0, "CLASSIFICATION_TYPE": "U", "NORAD_CAT_ID": 6909, "ELEMENT_SET_NO": 999, "REV_AT_EPOCH": 80558, "BSTAR": 0.00029265, "MEAN_MOTION_DOT": 2.98e-06, "MEAN_MOTION_DDOT": 0}, "tle": {"line1": "1 06909U 73081A   25361.13241338  .00000298  00000+0  29265-3 0  9990", "line2": "2 06909  89.8558 254.8386 0155993  35.6424 325.5035 13.71442057805584"}}, "geometry": {"type": "Point", "coordinates": [-105.05640580089783, 36.918065206962]}}, {"type": "Feature", "properties": {"norad_id": 10457, "name": "TRANSAT", "group": "nnss", "lat": -47.566036614478286, "lon": -101.53497182070603, "alt_km": 1079.2548582698219, "timestamp": "2025-12-27T08:36:18.650793+00:00", "meta": {"OBJECT_NAME": "TRANSAT", "OBJECT_ID": "1977-106A", "EPOCH": "2025-12-27T04:12:20.050848", "MEAN_MOTION": 13.48945884, "ECCENTRICITY": 0.0026675, "INCLINATION": 89.6473, "RA_OF_ASC_NODE": 78.0855, "ARG_OF_PERICENTER": 148.7401, "MEAN_ANOMALY": 268.7468, "EPHEMERIS_TYPE": 0, "CLASSIFICATION_TYPE": "U", "NORAD_CAT_ID": 10457, "ELEMENT_SET_NO": 999, "REV_AT_EPOCH": 36938, "BSTAR": 0.00012462, "MEAN_MOTION_DOT": 8.9e-07, "MEAN_MOTION_DDOT": 0}, "tle": {"line1": "1 10457U 77106A   25361.17523207  .00000089  00000+0  12462-3 0  9996", "line2": "2 10457  89.6473  78.0855 0026675 148.7401 268.7468 13.48945884369384"}}, "geometry": {"type": "Point", "coordinates": [-101.53497182070603, -47.566036614478286]}}, {"type": "Feature", "properties": {"norad_id": 12458, "name": "NOVA 1", "group": "nnss", "lat": -40.01928726765694, "lon": -88.69760730053352, "alt_km": 1189.1681612114035, "timestamp": "2025-12-27T08:36:18.650804+00:00", "meta": {"OBJECT_NAME": "NOVA 1", "OBJECT_ID": "1981-044A", "EPOCH": "2025-12-27T04:11:06.067392", "MEAN_MOTION": 13.23280146, "ECCENTRICITY": 0.0015653, "INCLINATION": 89.8524, "RA_OF_ASC_NODE": 91.181, "ARG_OF_PERICENTER": 68.4809, "MEAN_ANOMALY": 354.5029, "EPHEMERIS_TYPE": 0, "CLASSIFICATION_TYPE": "U", "NORAD_CAT_ID": 12458, "ELEMENT_SET_NO": 999, "REV_AT_EPOCH": 15377, "BSTAR": 0.00011717, "MEAN_MOTION_DOT": 5.9e-07, "MEAN_MOTION_DDOT": 0}, "tle": {"line1": "1 12458U 81044A   25361.17437578  .00000059  00000+0  11717-3 0  9999", "line2": "2 12458  89.8524  91.1810 0015653  68.4809 354.5029 13.23280146153774"}}, "geometry": {"type": "Point", "coordinates": [-88.69760730053352, -40.01928726765694]}}, {"type": "Feature", "properties": {"norad_id": 15362, "name": "NOVA 3", "group": "nnss", "lat": 80.38640146859989, "lon": 79.98806971665745, "alt_km": 1185.4455607590799, "timestamp": "2025-12-27T08:36:18.650815+00:00", "meta": {"OBJECT_NAME": "NOVA 3", "OBJECT_ID": "1984-110A", "EPOCH": "2025-12-27T04:53:11.725152", "MEAN_MOTION": 13.2304649, "ECCENTRICITY": 0.0029836, "INCLINATION": 90.1216, "RA_OF_ASC_NODE": 80.7046, "ARG_OF_PERICENTER": 290.1469, "MEAN_ANOMALY": 132.5367, "EPHEMERIS_TYPE": 0, "CLASSIFICATION_TYPE": "U", "NORAD_CAT_ID": 15362, "ELEMENT_SET_NO": 999, "REV_AT_EPOCH": 98890, "BSTAR": 0.00018678, "MEAN_MOTION_DOT": 8.7e-07, "MEAN_MOTION_DDOT": 0}, "tle": {"line1": "1 15362U 84110A   25361.20360793  .00000087  00000+0  18678-3 0  9995", "line2": "2 15362  90.1216  80.7046 0029836 290.1469 132.5367 13.23046490988905"}}, "geometry": {"type": "Point", "coordinates": [79.98806971665745, 80.38640146859989]}}, {"type": "Feature", "properties": {"norad_id": 15935, "name": "OSCAR 30", "group": "nnss", "lat": 52.00363763172256, "lon": -79.70226357996694, "alt_km": 1105.775602554504, "timestamp": "2025-12-27T08:36:18.650825+00:00", "meta": {"OBJECT_NAME": "OSCAR 30", "OBJECT_ID": "1985-066A", "EPOCH": "2025-12-27T04:27:45.006912", "MEAN_MOTION": 13.36080792, "ECCENTRICITY": 0.0168712, "INCLINATION": 90.1653, "RA_OF_ASC_NODE": 100.0832, "ARG_OF_PERICENTER": 43.5126, "MEAN_ANOMALY": 332.7393, "EPHEMERIS_TYPE": 0, "CLASSIFICATION_TYPE": "U", "NORAD_CAT_ID": 15935, "ELEMENT_SET_NO": 999, "REV_AT_EPOCH": 96646, "BSTAR": 0.00017205, "MEAN_MOTION_DOT": 1.05e-06, "MEAN_MOTION_DDOT": 0}, "tle": {"line1": "1 15935U 85066A   25361.18593758  .00000105  00000+0  17205-3 0  9994", "line2": "2 15935  90.1653 100.0832 0168712  43.5126 332.7393 13.36080792966469"}}, "geometry": {"type": "Point", "coordinates": [-79.70226357996694, 52.00363763172256]}}, {"type": "Feature", "properties": {"norad_id": 15936, "name": "OSCAR 24", "group": "nnss", "lat": -15.077940714026466, "lon": -87.48429683261334, "alt_km": 1233.4802927864157, "timestamp": "2025-12-27T08:36:18.650836+00:00", "meta": {"OBJECT_NAME": "OSCAR 24", "OBJECT_ID": "1985-066B", "EPOCH": "2025-12-27T04:08:09.356064", "MEAN_MOTION": 13.3593799, "ECCENTRICITY": 0.0169903, "INCLINATION": 90.1791, "RA_OF_ASC_NODE": 92.5607, "ARG_OF_PERICENTER": 50.0065, "MEAN_ANOMALY": 328.7739, "EPHEMERIS_TYPE": 0, "CLASSIFICATION_TYPE": "U", "NORAD_CAT_ID": 15936, "ELEMENT_SET_NO": 999, "REV_AT_EPOCH": 96836, "BSTAR": 0.0001534, "MEAN_MOTION_DOT": 9.5e-07, "MEAN_MOTION_DDOT": 0}, "tle": {"line1": "1 15936U 85066B   25361.17233051  .00000095  00000+0  15340-3 0  9997", "line2": "2 15936  90.1791  92.5607 0169903  50.0065 328.7739 13.35937990968366"}}, "geometry": {"type": "Point", "coordinates": [-87.48429683261334, -15.077940714026466]}}]}